GLOBALSTAR M035         
1 25851U 99037A   25360.23839933 -.00000016  00000+0  17996-2 0  9996
2 25851  51.9985 346.6711 0013646 293.9460  78.7327 11.04540839117481
GLOBALSTAR M032         
1 25852U 99037B   25359.84118225 -.00000073  00000+0 -20015-3 0  9997
2 25852  51.9917 159.5327 0013683 127.3232 232.8816 11.19075356156245
GLOBALSTAR M051         
1 25853U 99037C   25360.23241950 -.00000102  00000+0 -74790-3 0  9997
2 25853  51.9814 297.6063 0000529  43.1632 316.9220 11.42201490154334
GLOBALSTAR M030         
1 25854U 99037D   25360.27666238 -.00000016  00000+0  12492-2 0  9995
2 25854  51.9879  91.3864 0003364  45.8805 314.2288 11.55112620172240
GLOBALSTAR M048         
1 25872U 99041A   25360.05515072 -.00000059  00000+0  29014-3 0  9991
2 25872  51.9351 240.4866 0013306 151.7168 356.5102 11.33861403146746
GLOBALSTAR M026         
1 25873U 99041B   25359.09155505 -.00000194  00000+0 -48015-2 0  9997
2 25873  52.0009 105.1711 0001775 193.8730 337.0108 11.06847670169626
GLOBALSTAR M043         
1 25874U 99041C   25360.25229222 -.00000024  00000+0  13079-2 0  9999
2 25874  51.9431 355.3123 0013444 278.6088 171.0645 11.25699776144509
GLOBALSTAR M028         
1 25875U 99041D   25360.21015943 -.00000062  00000+0  25159-3 0  9994
2 25875  51.9644 340.4803 0063421 128.3088 232.3498 12.50593254214202
